CCSDS_OMM_VERS = 2.0
CREATION_DATE  = 
ORIGINATOR     = 

OBJECT_NAME    = HULIANWANG DIGUI 13H
OBJECT_ID      = 2025-258H
CENTER_NAME    = EARTH
REF_FRAME      = TEME
TIME_SYSTEM    = UTC
MEAN_ELEMENT_THEORY = SGP/SGP4

EPOCH          = 2025-11-13T09:05:41.133120
MEAN_MOTION    = 14.26388288
ECCENTRICITY   = .0011471
INCLINATION    = 50.0011
RA_OF_ASC_NODE = 25.6544
ARG_OF_PERICENTER = 258.7502
MEAN_ANOMALY   = 101.2123

EPHEMERIS_TYPE = 0
CLASSIFICATION_TYPE = U
NORAD_CAT_ID   = 66419
ELEMENT_SET_NO = 999
REV_AT_EPOCH   = 47
BSTAR          = .14493961E-3
MEAN_MOTION_DOT = .191E-5
MEAN_MOTION_DDOT = 0

CCSDS_OMM_VERS = 2.0
CREATION_DATE  = 
ORIGINATOR     = 

OBJECT_NAME    = HULIANWANG DIGUI 13J
OBJECT_ID      = 2025-258J
CENTER_NAME    = EARTH
REF_FRAME      = TEME
TIME_SYSTEM    = UTC
MEAN_ELEMENT_THEORY = SGP/SGP4

EPOCH          = 2025-11-13T05:43:33.178080
MEAN_MOTION    = 14.26503775
ECCENTRICITY   = .00110144
INCLINATION    = 50.0032
RA_OF_ASC_NODE = 26.2522
ARG_OF_PERICENTER = 262.7567
MEAN_ANOMALY   = 97.2095

EPHEMERIS_TYPE = 0
CLASSIFICATION_TYPE = U
NORAD_CAT_ID   = 66420
ELEMENT_SET_NO = 999
REV_AT_EPOCH   = 44
BSTAR          = .14273146E-3
MEAN_MOTION_DOT = .186E-5
MEAN_MOTION_DDOT = 0

CCSDS_OMM_VERS = 2.0
CREATION_DATE  = 
ORIGINATOR     = 

OBJECT_NAME    = CZ-12 R/B
OBJECT_ID      = 2025-258K
CENTER_NAME    = EARTH
REF_FRAME      = TEME
TIME_SYSTEM    = UTC
MEAN_ELEMENT_THEORY = SGP/SGP4

EPOCH          = 2025-11-13T13:13:42.652704
MEAN_MOTION    = 14.42308017
ECCENTRICITY   = .00646644
INCLINATION    = 49.9960
RA_OF_ASC_NODE = 24.6046
ARG_OF_PERICENTER = 144.4464
MEAN_ANOMALY   = 216.0791

EPHEMERIS_TYPE = 0
CLASSIFICATION_TYPE = U
NORAD_CAT_ID   = 66421
ELEMENT_SET_NO = 999
REV_AT_EPOCH   = 50
BSTAR          = .68004659E-4
MEAN_MOTION_DOT = .6E-6
MEAN_MOTION_DDOT = 0

