HULIANWANG DIGUI 13H    
1 66419U 25258H   25317.37894830  .00000191  00000+0  14494-3 0  9993
2 66419  50.0011  25.6544 0011471 258.7502 101.2123 14.26388288   475
HULIANWANG DIGUI 13J    
1 66420U 25258J   25317.23857845  .00000186  00000+0  14273-3 0  9994
2 66420  50.0032  26.2522 0011014 262.7567  97.2095 14.26503775   441
CZ-12 R/B               
1 66421U 25258K   25317.55118811  .00000060  00000+0  68005-4 0  9997
2 66421  49.9960  24.6046 0064664 144.4464 216.0791 14.42308017   504
